[{"id":"1","province":"\u9ed1\u9f99\u6c5f","city":"\u4e03\u53f0\u6cb3","postcode":"154600","citycode":"0464","areacode":"230900"},{"id":"2","province":"\u91cd\u5e86","city":"\u4e07\u5dde","postcode":"404000","citycode":"023","areacode":"500101"},{"id":"3","province":"\u6d77\u5357","city":"\u4e09\u4e9a","postcode":"572000","citycode":"0899","areacode":"460200"},{"id":"4","province":"\u798f\u5efa","city":"\u4e09\u660e","postcode":"365000","citycode":"0598","areacode":"350400"},{"id":"5","province":"\u6cb3\u5357","city":"\u4e09\u95e8\u5ce1","postcode":"472000","citycode":"0398","areacode":"411200"},{"id":"6","province":"\u4e0a\u6d77","city":"\u4e0a\u6d77","postcode":"200000","citycode":"021","areacode":"310000"},{"id":"7","province":"\u6c5f\u897f","city":"\u4e0a\u9976","postcode":"334000","citycode":"0793","areacode":"361100"},{"id":"8","province":"\u5e7f\u4e1c","city":"\u4e1c\u839e","postcode":"523000","citycode":"0769","areacode":"441900"},{"id":"9","province":"\u5c71\u4e1c","city":"\u4e1c\u8425","postcode":"257000","citycode":"0546","areacode":"370500"},{"id":"10","province":"\u5b81\u590f","city":"\u4e2d\u536b","postcode":"755000","citycode":"0955","areacode":"640500"},{"id":"11","province":"\u5e7f\u4e1c","city":"\u4e2d\u5c71","postcode":"528400","citycode":"0760","areacode":"442000"},{"id":"12","province":"\u7518\u8083","city":"\u4e34\u590f","postcode":"731100","citycode":"0930","areacode":"622901"},{"id":"13","province":"\u5c71\u897f","city":"\u4e34\u6c7e","postcode":"041000","citycode":"0357","areacode":"141000"},{"id":"14","province":"\u5c71\u4e1c","city":"\u4e34\u6c82","postcode":"276000","citycode":"0539","areacode":"371300"},{"id":"15","province":"\u4e91\u5357","city":"\u4e34\u6ca7","postcode":"677000","citycode":"0883","areacode":"530900"},{"id":"16","province":"\u5185\u8499\u53e4","city":"\u4e34\u6cb3","postcode":"015000","citycode":"0478","areacode":"150802"},{"id":"17","province":"\u8fbd\u5b81","city":"\u4e39\u4e1c","postcode":"118000","citycode":"0415","areacode":"210600"},{"id":"18","province":"\u6d59\u6c5f","city":"\u4e3d\u6c34","postcode":"323000","citycode":"0578","areacode":"331100"},{"id":"19","province":"\u4e91\u5357","city":"\u4e3d\u6c5f","postcode":"674100","citycode":"0888","areacode":"530700"},{"id":"20","province":"\u5185\u8499\u53e4","city":"\u4e4c\u5170\u5bdf\u5e03","postcode":"012000","citycode":"0474","areacode":"150900"},{"id":"21","province":"\u5185\u8499\u53e4","city":"\u4e4c\u5170\u6d69\u7279","postcode":"137400","citycode":"0482","areacode":"152201"},{"id":"22","province":"\u5185\u8499\u53e4","city":"\u4e4c\u6d77","postcode":"016000","citycode":"0473","areacode":"150300"},{"id":"23","province":"\u65b0\u7586","city":"\u4e4c\u9c81\u6728\u9f50","postcode":"830000","citycode":"0991","areacode":"650100"},{"id":"24","province":"\u56db\u5ddd","city":"\u4e50\u5c71","postcode":"614000","citycode":"0833","areacode":"511100"},{"id":"25","province":"\u6c5f\u897f","city":"\u4e5d\u6c5f","postcode":"332000","citycode":"0792","areacode":"360400"},{"id":"26","province":"\u5e7f\u4e1c","city":"\u4e91\u6d6e","postcode":"527300","citycode":"0766","areacode":"445300"},{"id":"27","province":"\u5b89\u5fbd","city":"\u4eb3\u5dde","postcode":"236000","citycode":"0558","areacode":"341600"},{"id":"28","province":"\u6e56\u5317","city":"\u4ed9\u6843","postcode":"430000","citycode":"027","areacode":"429004"},{"id":"29","province":"\u9ed1\u9f99\u6c5f","city":"\u4f0a\u6625","postcode":"153000","citycode":"0458","areacode":"230700"},{"id":"30","province":"\u65b0\u7586","city":"\u4f0a\u7281","postcode":"835000","citycode":"0999","areacode":"654000"},{"id":"31","province":"\u5e7f\u4e1c","city":"\u4f5b\u5c71","postcode":"528000","citycode":"0757","areacode":"440600"},{"id":"32","province":"\u9ed1\u9f99\u6c5f","city":"\u4f73\u6728\u65af","postcode":"154000","citycode":"0454","areacode":"230800"},{"id":"33","province":"\u6cb3\u5317","city":"\u4fdd\u5b9a","postcode":"071000","citycode":"0312","areacode":"130600"},{"id":"34","province":"\u4e91\u5357","city":"\u4fdd\u5c71","postcode":"678000","citycode":"0875","areacode":"530500"},{"id":"35","province":"\u6cb3\u5357","city":"\u4fe1\u9633","postcode":"464000","citycode":"0376","areacode":"411500"},{"id":"36","province":"\u65b0\u7586","city":"\u514b\u5b5c\u52d2\u82cf\u67ef\u5c14\u514b\u5b5c","postcode":"845300","citycode":"0908","areacode":"653000"},{"id":"37","province":"\u65b0\u7586","city":"\u514b\u62c9\u739b\u4f9d","postcode":"834000","citycode":"0990","areacode":"650200"},{"id":"38","province":"\u5b89\u5fbd","city":"\u516d\u5b89","postcode":"237000","citycode":"0564","areacode":"341500"},{"id":"39","province":"\u8d35\u5dde","city":"\u516d\u76d8\u6c34","postcode":"553000","citycode":"0858","areacode":"520200"},{"id":"40","province":"\u7518\u8083","city":"\u5170\u5dde","postcode":"730000","citycode":"0931","areacode":"620100"},{"id":"41","province":"\u9752\u6d77","city":"\u5171\u548c","postcode":"813000","citycode":"0974","areacode":"632521"},{"id":"42","province":"\u8d35\u5dde","city":"\u5174\u4e49","postcode":"562400","citycode":"0859","areacode":"522301"},{"id":"43","province":"\u5185\u8499\u53e4","city":"\u5174\u5b89\u76df","postcode":"137400","citycode":"0482","areacode":"152200"},{"id":"44","province":"\u56db\u5ddd","city":"\u5185\u6c5f","postcode":"641000","citycode":"0832","areacode":"511000"},{"id":"45","province":"\u56db\u5ddd","city":"\u51c9\u5c71","postcode":"615000","citycode":"0834","areacode":"513400"},{"id":"46","province":"\u8d35\u5dde","city":"\u51ef\u91cc","postcode":"556000","citycode":"0855","areacode":"522601"},{"id":"47","province":"\u5185\u8499\u53e4","city":"\u5305\u5934","postcode":"014000","citycode":"0472","areacode":"150200"},{"id":"48","province":"\u5317\u4eac","city":"\u5317\u4eac","postcode":"100000","citycode":"010","areacode":"110000"},{"id":"49","province":"\u5e7f\u897f","city":"\u5317\u6d77","postcode":"536000","citycode":"0779","areacode":"450500"},{"id":"50","province":"\u6e56\u5317","city":"\u5341\u5830","postcode":"442000","citycode":"0719","areacode":"420300"},{"id":"51","province":"\u6c5f\u82cf","city":"\u5357\u4eac","postcode":"210000","citycode":"025","areacode":"320100"},{"id":"52","province":"\u56db\u5ddd","city":"\u5357\u5145","postcode":"637000","citycode":"0817","areacode":"511300"},{"id":"53","province":"\u5e7f\u897f","city":"\u5357\u5b81","postcode":"530000","citycode":"0771","areacode":"450100"},{"id":"54","province":"\u798f\u5efa","city":"\u5357\u5e73","postcode":"353000","citycode":"0599","areacode":"350700"},{"id":"55","province":"\u6c5f\u897f","city":"\u5357\u660c","postcode":"330000","citycode":"0791","areacode":"360100"},{"id":"56","province":"\u6c5f\u82cf","city":"\u5357\u901a","postcode":"226000","citycode":"0513","areacode":"320600"},{"id":"57","province":"\u6cb3\u5357","city":"\u5357\u9633","postcode":"473000","citycode":"0377","areacode":"411300"},{"id":"58","province":"\u65b0\u7586","city":"\u535a\u4e50","postcode":"833400","citycode":"0909","areacode":"652701"},{"id":"59","province":"\u65b0\u7586","city":"\u535a\u5c14\u5854\u62c9","postcode":"833400","citycode":"0909","areacode":"652700"},{"id":"60","province":"\u798f\u5efa","city":"\u53a6\u95e8","postcode":"361000","citycode":"0592","areacode":"350200"},{"id":"61","province":"\u9ed1\u9f99\u6c5f","city":"\u53cc\u9e2d\u5c71","postcode":"155100","citycode":"0469","areacode":"230500"},{"id":"62","province":"\u6d59\u6c5f","city":"\u53f0\u5dde","postcode":"318000","citycode":"0576","areacode":"331000"},{"id":"63","province":"\u5b89\u5fbd","city":"\u5408\u80a5","postcode":"230000","citycode":"0551","areacode":"340100"},{"id":"64","province":"\u6c5f\u897f","city":"\u5409\u5b89","postcode":"343000","citycode":"0796","areacode":"360800"},{"id":"65","province":"\u5409\u6797","city":"\u5409\u6797\u5e02","postcode":"132000","citycode":"0432","areacode":"220200"},{"id":"66","province":"\u6e56\u5357","city":"\u5409\u9996","postcode":"416000","citycode":"0743","areacode":"433101"},{"id":"67","province":"\u65b0\u7586","city":"\u5410\u9c81\u756a","postcode":"838000","citycode":"0995","areacode":"650400"},{"id":"68","province":"\u5c71\u897f","city":"\u5415\u6881","postcode":"033000","citycode":"0358","areacode":"141100"},{"id":"69","province":"\u5b81\u590f","city":"\u5434\u5fe0","postcode":"751100","citycode":"0953","areacode":"640300"},{"id":"70","province":"\u6cb3\u5357","city":"\u5468\u53e3","postcode":"466000","citycode":"0394","areacode":"411600"},{"id":"71","province":"\u5185\u8499\u53e4","city":"\u547c\u4f26\u8d1d\u5c14","postcode":"021000","citycode":"0470","areacode":"150700"},{"id":"72","province":"\u5185\u8499\u53e4","city":"\u547c\u548c\u6d69\u7279","postcode":"010000","citycode":"0471","areacode":"150100"},{"id":"73","province":"\u65b0\u7586","city":"\u548c\u7530","postcode":"848000","citycode":"0903","areacode":"653201"},{"id":"74","province":"\u6e56\u5317","city":"\u54b8\u5b81","postcode":"437000","citycode":"0715","areacode":"421200"},{"id":"75","province":"\u9655\u897f","city":"\u54b8\u9633","postcode":"712000","citycode":"029","areacode":"610400"},{"id":"76","province":"\u65b0\u7586","city":"\u54c8\u5bc6","postcode":"839000","citycode":"0902","areacode":"650500"},{"id":"77","province":"\u9ed1\u9f99\u6c5f","city":"\u54c8\u5c14\u6ee8","postcode":"150010","citycode":"0451","areacode":"230100"},{"id":"78","province":"\u6cb3\u5317","city":"\u5510\u5c71","postcode":"063000","citycode":"0315","areacode":"130200"},{"id":"79","province":"\u6cb3\u5357","city":"\u5546\u4e18","postcode":"476000","citycode":"0370","areacode":"411400"},{"id":"80","province":"\u9655\u897f","city":"\u5546\u5dde","postcode":"726000","citycode":"0914","areacode":"611002"},{"id":"81","province":"\u9655\u897f","city":"\u5546\u6d1b","postcode":"726000","citycode":"0914","areacode":"611000"},{"id":"82","province":"\u65b0\u7586","city":"\u5580\u4ec0","postcode":"844000","citycode":"0998","areacode":"653101"},{"id":"83","province":"\u6d59\u6c5f","city":"\u5609\u5174","postcode":"314000","citycode":"0573","areacode":"330400"},{"id":"84","province":"\u7518\u8083","city":"\u5609\u5cea\u5173","postcode":"735100","citycode":"0937","areacode":"620200"},{"id":"85","province":"\u5409\u6797","city":"\u56db\u5e73","postcode":"136000","citycode":"0434","areacode":"220300"},{"id":"86","province":"\u5b81\u590f","city":"\u56fa\u539f","postcode":"756000","citycode":"0954","areacode":"640400"},{"id":"87","province":"\u65b0\u7586","city":"\u5854\u57ce","postcode":"834700","citycode":"0901","areacode":"654201"},{"id":"88","province":"\u9ed1\u9f99\u6c5f","city":"\u5927\u5174\u5b89\u5cad","postcode":"165000","citycode":"0457","areacode":"232700"},{"id":"89","province":"\u5c71\u897f","city":"\u5927\u540c","postcode":"037000","citycode":"0352","areacode":"140200"},{"id":"90","province":"\u9ed1\u9f99\u6c5f","city":"\u5927\u5e86","postcode":"163000","citycode":"0459","areacode":"230600"},{"id":"91","province":"\u4e91\u5357","city":"\u5927\u7406","postcode":"671000","citycode":"0872","areacode":"532901"},{"id":"92","province":"\u8fbd\u5b81","city":"\u5927\u8fde","postcode":"116000","citycode":"0411","areacode":"210200"},{"id":"93","province":"\u7518\u8083","city":"\u5929\u6c34","postcode":"741000","citycode":"0938","areacode":"620500"},{"id":"94","province":"\u5929\u6d25","city":"\u5929\u6d25","postcode":"300000","citycode":"022","areacode":"120000"},{"id":"95","province":"\u5c71\u897f","city":"\u592a\u539f","postcode":"030000","citycode":"0351","areacode":"140100"},{"id":"96","province":"\u65b0\u7586","city":"\u594e\u5c6f","postcode":"833200","citycode":"0992","areacode":"654003"},{"id":"97","province":"\u5c71\u4e1c","city":"\u5a01\u6d77","postcode":"264200","citycode":"0631","areacode":"371000"},{"id":"98","province":"\u6e56\u5357","city":"\u5a04\u5e95","postcode":"417000","citycode":"0738","areacode":"431300"},{"id":"99","province":"\u6e56\u5317","city":"\u5b5d\u611f","postcode":"432000","citycode":"0712","areacode":"420900"},{"id":"100","province":"\u798f\u5efa","city":"\u5b81\u5fb7","postcode":"352100","citycode":"0593","areacode":"350900"},{"id":"101","province":"\u6d59\u6c5f","city":"\u5b81\u6ce2","postcode":"315000","citycode":"0574","areacode":"330200"},{"id":"102","province":"\u5b89\u5fbd","city":"\u5b89\u5e86","postcode":"246000","citycode":"0556","areacode":"340800"},{"id":"103","province":"\u9655\u897f","city":"\u5b89\u5eb7","postcode":"725000","citycode":"0915","areacode":"610900"},{"id":"104","province":"\u6cb3\u5357","city":"\u5b89\u9633","postcode":"455000","citycode":"0372","areacode":"410500"},{"id":"105","province":"\u8d35\u5dde","city":"\u5b89\u987a","postcode":"561000","citycode":"0851","areacode":"520400"},{"id":"106","province":"\u7518\u8083","city":"\u5b9a\u897f","postcode":"743000","citycode":"0932","areacode":"621100"},{"id":"107","province":"\u56db\u5ddd","city":"\u5b9c\u5bbe","postcode":"644000","citycode":"0831","areacode":"511500"},{"id":"108","province":"\u6e56\u5317","city":"\u5b9c\u660c","postcode":"443000","citycode":"0717","areacode":"420500"},{"id":"109","province":"\u6c5f\u897f","city":"\u5b9c\u6625","postcode":"336000","citycode":"0795","areacode":"360900"},{"id":"110","province":"\u9655\u897f","city":"\u5b9d\u9e21","postcode":"721000","citycode":"0917","areacode":"610300"},{"id":"111","province":"\u5b89\u5fbd","city":"\u5ba3\u57ce","postcode":"242000","citycode":"0563","areacode":"341800"},{"id":"112","province":"\u5b89\u5fbd","city":"\u5bbf\u5dde","postcode":"234000","citycode":"0557","areacode":"341300"},{"id":"113","province":"\u6c5f\u82cf","city":"\u5bbf\u8fc1","postcode":"223800","citycode":"0527","areacode":"321300"},{"id":"114","province":"\u897f\u85cf","city":"\u5c71\u5357","postcode":"856000","citycode":"0893","areacode":"540500"},{"id":"115","province":"\u6e56\u5357","city":"\u5cb3\u9633","postcode":"414000","citycode":"0730","areacode":"430600"},{"id":"116","province":"\u5e7f\u897f","city":"\u5d07\u5de6","postcode":"532200","citycode":"0771","areacode":"451400"},{"id":"117","province":"\u5b89\u5fbd","city":"\u5de2\u6e56","postcode":"238000","citycode":"0565","areacode":"340181"},{"id":"118","province":"\u56db\u5ddd","city":"\u5df4\u4e2d","postcode":"635500","citycode":"0827","areacode":"511900"},{"id":"119","province":"\u5185\u8499\u53e4","city":"\u5df4\u5f66\u6dd6\u5c14","postcode":"015000","citycode":"0478","areacode":"150800"},{"id":"120","province":"\u65b0\u7586","city":"\u5df4\u97f3\u90ed\u695e","postcode":"841000","citycode":"0996","areacode":"652800"},{"id":"121","province":"\u6c5f\u82cf","city":"\u5e38\u5dde","postcode":"213000","citycode":"0519","areacode":"320400"},{"id":"122","province":"\u6e56\u5357","city":"\u5e38\u5fb7","postcode":"415000","citycode":"0736","areacode":"430700"},{"id":"123","province":"\u7518\u8083","city":"\u5e73\u51c9","postcode":"744000","citycode":"0933","areacode":"620800"},{"id":"124","province":"\u6cb3\u5357","city":"\u5e73\u9876\u5c71","postcode":"467000","citycode":"0375","areacode":"410400"},{"id":"125","province":"\u56db\u5ddd","city":"\u5e7f\u5143","postcode":"628000","citycode":"0839","areacode":"510800"},{"id":"126","province":"\u56db\u5ddd","city":"\u5e7f\u5b89","postcode":"638000","citycode":"0826","areacode":"511600"},{"id":"127","province":"\u5e7f\u4e1c","city":"\u5e7f\u5dde","postcode":"510000","citycode":"020","areacode":"440100"},{"id":"128","province":"\u7518\u8083","city":"\u5e86\u9633","postcode":"745000","citycode":"0934","areacode":"621000"},{"id":"129","province":"\u65b0\u7586","city":"\u5e93\u5c14\u52d2","postcode":"841000","citycode":"0996","areacode":"652801"},{"id":"130","province":"\u6cb3\u5317","city":"\u5eca\u574a","postcode":"065000","citycode":"0316","areacode":"131000"},{"id":"131","province":"\u5409\u6797","city":"\u5ef6\u5409","postcode":"133000","citycode":"0433","areacode":"222401"},{"id":"132","province":"\u9655\u897f","city":"\u5ef6\u5b89","postcode":"716000","citycode":"0911","areacode":"610600"},{"id":"133","province":"\u5409\u6797","city":"\u5ef6\u8fb9","postcode":"133000","citycode":"0433","areacode":"222400"},{"id":"134","province":"\u6cb3\u5357","city":"\u5f00\u5c01","postcode":"475000","citycode":"0371","areacode":"410200"},{"id":"135","province":"\u6cb3\u5317","city":"\u5f20\u5bb6\u53e3","postcode":"075000","citycode":"0313","areacode":"130700"},{"id":"136","province":"\u6e56\u5357","city":"\u5f20\u5bb6\u754c","postcode":"427000","citycode":"0744","areacode":"430800"},{"id":"137","province":"\u7518\u8083","city":"\u5f20\u6396","postcode":"734000","citycode":"0936","areacode":"620700"},{"id":"138","province":"\u6c5f\u82cf","city":"\u5f90\u5dde","postcode":"221000","citycode":"0516","areacode":"320300"},{"id":"139","province":"\u9752\u6d77","city":"\u5fb7\u4ee4\u54c8","postcode":"817000","citycode":"0977","areacode":"632802"},{"id":"140","province":"\u4e91\u5357","city":"\u5fb7\u5b8f","postcode":"678400","citycode":"0692","areacode":"533100"},{"id":"141","province":"\u5c71\u4e1c","city":"\u5fb7\u5dde","postcode":"253000","citycode":"0534","areacode":"371400"},{"id":"142","province":"\u56db\u5ddd","city":"\u5fb7\u9633","postcode":"618000","citycode":"0838","areacode":"510600"},{"id":"143","province":"\u5c71\u897f","city":"\u5ffb\u5dde","postcode":"034000","citycode":"0350","areacode":"140900"},{"id":"144","province":"\u6e56\u5357","city":"\u6000\u5316","postcode":"418000","citycode":"0745","areacode":"431200"},{"id":"145","province":"\u4e91\u5357","city":"\u6012\u6c5f","postcode":"673100","citycode":"0886","areacode":"533300"},{"id":"146","province":"\u4e91\u5357","city":"\u601d\u8305","postcode":"665000","citycode":"0879","areacode":"530802"},{"id":"147","province":"\u6e56\u5317","city":"\u6069\u65bd","postcode":"445000","citycode":"0718","areacode":"422801"},{"id":"148","province":"\u5e7f\u4e1c","city":"\u60e0\u5dde","postcode":"516000","citycode":"0752","areacode":"441300"},{"id":"149","province":"\u56db\u5ddd","city":"\u6210\u90fd","postcode":"610000","citycode":"028","areacode":"510100"},{"id":"150","province":"\u6c5f\u82cf","city":"\u626c\u5dde","postcode":"225000","citycode":"0514","areacode":"321000"},{"id":"151","province":"\u6cb3\u5317","city":"\u627f\u5fb7","postcode":"067000","citycode":"0314","areacode":"130800"},{"id":"152","province":"\u6c5f\u897f","city":"\u629a\u5dde","postcode":"344000","citycode":"0794","areacode":"361000"},{"id":"153","province":"\u8fbd\u5b81","city":"\u629a\u987a","postcode":"113000","citycode":"024","areacode":"210400"},{"id":"154","province":"\u897f\u85cf","city":"\u62c9\u8428","postcode":"850000","citycode":"0891","areacode":"540100"},{"id":"155","province":"\u5e7f\u4e1c","city":"\u63ed\u9633","postcode":"522000","citycode":"0663","areacode":"445200"},{"id":"156","province":"\u56db\u5ddd","city":"\u6500\u679d\u82b1","postcode":"617000","citycode":"0812","areacode":"510400"},{"id":"157","province":"\u4e91\u5357","city":"\u6587\u5c71","postcode":"663000","citycode":"0876","areacode":"532601"},{"id":"158","province":"\u6cb3\u5357","city":"\u65b0\u4e61","postcode":"453000","citycode":"0373","areacode":"410700"},{"id":"159","province":"\u6c5f\u897f","city":"\u65b0\u4f59","postcode":"338000","citycode":"0790","areacode":"360500"},{"id":"160","province":"\u6c5f\u82cf","city":"\u65e0\u9521","postcode":"214000","citycode":"0510","areacode":"320200"},{"id":"161","province":"\u897f\u85cf","city":"\u65e5\u5580\u5219","postcode":"857000","citycode":"0892","areacode":"540200"},{"id":"162","province":"\u5c71\u4e1c","city":"\u65e5\u7167","postcode":"276800","citycode":"0633","areacode":"371100"},{"id":"163","province":"\u4e91\u5357","city":"\u6606\u660e","postcode":"650000","citycode":"0871","areacode":"530100"},{"id":"164","province":"\u65b0\u7586","city":"\u660c\u5409","postcode":"831100","citycode":"0994","areacode":"652301"},{"id":"165","province":"\u897f\u85cf","city":"\u660c\u90fd","postcode":"854000","citycode":"0895","areacode":"540300"},{"id":"166","province":"\u4e91\u5357","city":"\u662d\u901a","postcode":"657000","citycode":"0870","areacode":"530600"},{"id":"167","province":"\u5c71\u897f","city":"\u664b\u4e2d","postcode":"030600","citycode":"0354","areacode":"140700"},{"id":"168","province":"\u5c71\u897f","city":"\u664b\u57ce","postcode":"048000","citycode":"0356","areacode":"140500"},{"id":"169","province":"\u4e91\u5357","city":"\u666e\u6d31","postcode":"665000","citycode":"0879","areacode":"530800"},{"id":"170","province":"\u6c5f\u897f","city":"\u666f\u5fb7\u9547","postcode":"333000","citycode":"0798","areacode":"360200"},{"id":"171","province":"\u4e91\u5357","city":"\u66f2\u9756","postcode":"655000","citycode":"0874","areacode":"530300"},{"id":"172","province":"\u5c71\u897f","city":"\u6714\u5dde","postcode":"036000","citycode":"0349","areacode":"140600"},{"id":"173","province":"\u8fbd\u5b81","city":"\u671d\u9633","postcode":"122000","citycode":"0421","areacode":"211300"},{"id":"174","province":"\u8fbd\u5b81","city":"\u672c\u6eaa","postcode":"117000","citycode":"0414","areacode":"210500"},{"id":"175","province":"\u5e7f\u897f","city":"\u6765\u5bbe","postcode":"546100","citycode":"0772","areacode":"451300"},{"id":"176","province":"\u6d59\u6c5f","city":"\u676d\u5dde","postcode":"310000","citycode":"0571","areacode":"330100"},{"id":"177","province":"\u5409\u6797","city":"\u677e\u539f","postcode":"138000","citycode":"0438","areacode":"220700"},{"id":"178","province":"\u897f\u85cf","city":"\u6797\u829d","postcode":"850400","citycode":"0894","areacode":"540400"},{"id":"179","province":"\u9752\u6d77","city":"\u679c\u6d1b","postcode":"814000","citycode":"0975","areacode":"632600"},{"id":"180","province":"\u5c71\u4e1c","city":"\u67a3\u5e84","postcode":"277000","citycode":"0632","areacode":"370400"},{"id":"181","province":"\u5e7f\u897f","city":"\u67f3\u5dde","postcode":"545000","citycode":"0772","areacode":"450200"},{"id":"182","province":"\u6e56\u5357","city":"\u682a\u6d32","postcode":"412000","citycode":"0731","areacode":"430200"},{"id":"183","province":"\u9752\u6d77","city":"\u683c\u5c14\u6728","postcode":"816000","citycode":"0979","areacode":"632801"},{"id":"184","province":"\u5e7f\u897f","city":"\u6842\u6797","postcode":"541000","citycode":"0773","areacode":"450300"},{"id":"185","province":"\u5e7f\u4e1c","city":"\u6885\u5dde","postcode":"514000","citycode":"0753","areacode":"441400"},{"id":"186","province":"\u5409\u6797","city":"\u6885\u6cb3\u53e3","postcode":"135000","citycode":"0448","areacode":"220581"},{"id":"187","province":"\u5e7f\u897f","city":"\u68a7\u5dde","postcode":"543000","citycode":"0774","areacode":"450400"},{"id":"188","province":"\u4e91\u5357","city":"\u695a\u96c4","postcode":"675000","citycode":"0878","areacode":"532301"},{"id":"189","province":"\u9655\u897f","city":"\u6986\u6797","postcode":"719000","citycode":"0912","areacode":"610800"},{"id":"190","province":"\u7518\u8083","city":"\u6b66\u5a01","postcode":"733000","citycode":"0935","areacode":"620600"},{"id":"191","province":"\u6e56\u5317","city":"\u6b66\u6c49","postcode":"430000","citycode":"027","areacode":"420100"},{"id":"192","province":"\u8d35\u5dde","city":"\u6bd5\u8282","postcode":"551700","citycode":"0857","areacode":"520500"},{"id":"193","province":"\u6e56\u5357","city":"\u6c38\u5dde","postcode":"425000","citycode":"0746","areacode":"431100"},{"id":"194","province":"\u9655\u897f","city":"\u6c49\u4e2d","postcode":"723000","citycode":"0916","areacode":"610700"},{"id":"195","province":"\u5e7f\u4e1c","city":"\u6c55\u5934","postcode":"515000","citycode":"0754","areacode":"440500"},{"id":"196","province":"\u5e7f\u4e1c","city":"\u6c55\u5c3e","postcode":"516600","citycode":"0660","areacode":"441500"},{"id":"197","province":"\u6e56\u5317","city":"\u6c5f\u6c49","postcode":"433000","citycode":"0728","areacode":"420103"},{"id":"198","province":"\u5e7f\u4e1c","city":"\u6c5f\u95e8","postcode":"529000","citycode":"0750","areacode":"440700"},{"id":"199","province":"\u5b89\u5fbd","city":"\u6c60\u5dde","postcode":"247100","citycode":"0566","areacode":"341700"},{"id":"200","province":"\u8fbd\u5b81","city":"\u6c88\u9633","postcode":"110000","citycode":"024","areacode":"210100"},{"id":"201","province":"\u6cb3\u5317","city":"\u6ca7\u5dde","postcode":"061000","citycode":"0317","areacode":"130900"},{"id":"202","province":"\u5e7f\u897f","city":"\u6cb3\u6c60","postcode":"547000","citycode":"0778","areacode":"451200"},{"id":"203","province":"\u5e7f\u4e1c","city":"\u6cb3\u6e90","postcode":"517000","citycode":"0762","areacode":"441600"},{"id":"204","province":"\u798f\u5efa","city":"\u6cc9\u5dde","postcode":"362000","citycode":"0595","areacode":"350500"},{"id":"205","province":"\u5c71\u4e1c","city":"\u6cf0\u5b89","postcode":"271000","citycode":"0538","areacode":"370900"},{"id":"206","province":"\u6c5f\u82cf","city":"\u6cf0\u5dde","postcode":"225300","citycode":"0523","areacode":"321200"},{"id":"207","province":"\u56db\u5ddd","city":"\u6cf8\u5dde","postcode":"646000","citycode":"0830","areacode":"510500"},{"id":"208","province":"\u6cb3\u5357","city":"\u6d1b\u9633","postcode":"471000","citycode":"0379","areacode":"410300"},{"id":"209","province":"\u5c71\u4e1c","city":"\u6d4e\u5357","postcode":"250000","citycode":"0531","areacode":"370100"},{"id":"210","province":"\u5c71\u4e1c","city":"\u6d4e\u5b81","postcode":"272000","citycode":"0537","areacode":"370800"},{"id":"211","province":"\u6cb3\u5357","city":"\u6d4e\u6e90","postcode":"454100","citycode":"0391","areacode":"419001"},{"id":"212","province":"\u9752\u6d77","city":"\u6d77\u4e1c","postcode":"810600","citycode":"0972","areacode":"630200"},{"id":"213","province":"\u9752\u6d77","city":"\u6d77\u5317","postcode":"812200","citycode":"0970","areacode":"632200"},{"id":"214","province":"\u9752\u6d77","city":"\u6d77\u5357","postcode":"813000","citycode":"0974","areacode":"460000"},{"id":"215","province":"\u6d77\u5357","city":"\u6d77\u53e3","postcode":"570100","citycode":"0898","areacode":"460100"},{"id":"216","province":"\u5185\u8499\u53e4","city":"\u6d77\u62c9\u5c14","postcode":"021000","citycode":"0470","areacode":"150702"},{"id":"217","province":"\u9752\u6d77","city":"\u6d77\u664f","postcode":"812200","citycode":"0970","areacode":"632223"},{"id":"218","province":"\u9752\u6d77","city":"\u6d77\u897f","postcode":"817000","citycode":"0977","areacode":"632800"},{"id":"219","province":"\u91cd\u5e86","city":"\u6daa\u9675","postcode":"408000","citycode":"023","areacode":"500102"},{"id":"220","province":"\u5c71\u4e1c","city":"\u6dc4\u535a","postcode":"255000","citycode":"0533","areacode":"370300"},{"id":"221","province":"\u5b89\u5fbd","city":"\u6dee\u5317","postcode":"235000","citycode":"0561","areacode":"340600"},{"id":"222","province":"\u5b89\u5fbd","city":"\u6dee\u5357","postcode":"232000","citycode":"0554","areacode":"340400"},{"id":"223","province":"\u6c5f\u82cf","city":"\u6dee\u5b89","postcode":"223000","citycode":"0517","areacode":"320800"},{"id":"224","province":"\u5e7f\u4e1c","city":"\u6df1\u5733","postcode":"518000","citycode":"0755","areacode":"440300"},{"id":"225","province":"\u5e7f\u4e1c","city":"\u6e05\u8fdc","postcode":"511500","citycode":"0763","areacode":"441800"},{"id":"226","province":"\u6d59\u6c5f","city":"\u6e29\u5dde","postcode":"325000","citycode":"0577","areacode":"330300"},{"id":"227","province":"\u9655\u897f","city":"\u6e2d\u5357","postcode":"714000","citycode":"0913","areacode":"610500"},{"id":"228","province":"\u6d59\u6c5f","city":"\u6e56\u5dde","postcode":"313000","citycode":"0572","areacode":"330500"},{"id":"229","province":"\u6e56\u5357","city":"\u6e58\u6f6d","postcode":"411100","citycode":"0731","areacode":"430300"},{"id":"230","province":"\u6e56\u5357","city":"\u6e58\u897f","postcode":"416000","citycode":"0743","areacode":"433100"},{"id":"231","province":"\u5e7f\u4e1c","city":"\u6e5b\u6c5f","postcode":"524000","citycode":"0759","areacode":"440800"},{"id":"232","province":"\u5b89\u5fbd","city":"\u6ec1\u5dde","postcode":"239000","citycode":"0550","areacode":"341100"},{"id":"233","province":"\u5c71\u4e1c","city":"\u6ee8\u5dde","postcode":"256600","citycode":"0543","areacode":"371600"},{"id":"234","province":"\u6cb3\u5357","city":"\u6f2f\u6cb3","postcode":"462000","citycode":"0395","areacode":"411100"},{"id":"235","province":"\u798f\u5efa","city":"\u6f33\u5dde","postcode":"363000","citycode":"0596","areacode":"350600"},{"id":"236","province":"\u5c71\u4e1c","city":"\u6f4d\u574a","postcode":"261000","citycode":"0536","areacode":"370700"},{"id":"237","province":"\u6e56\u5317","city":"\u6f5c\u6c5f","postcode":"433100","citycode":"0728","areacode":"429005"},{"id":"238","province":"\u6cb3\u5357","city":"\u6f62\u5ddd","postcode":"465100","citycode":"0397","areacode":"411526"},{"id":"239","province":"\u5e7f\u4e1c","city":"\u6f6e\u5dde","postcode":"521000","citycode":"0768","areacode":"445100"},{"id":"240","province":"\u6cb3\u5357","city":"\u6fee\u9633","postcode":"457000","citycode":"0393","areacode":"410900"},{"id":"241","province":"\u5c71\u4e1c","city":"\u70df\u53f0","postcode":"264000","citycode":"0535","areacode":"370600"},{"id":"242","province":"\u6cb3\u5357","city":"\u7126\u4f5c","postcode":"454100","citycode":"0391","areacode":"410800"},{"id":"243","province":"\u9ed1\u9f99\u6c5f","city":"\u7261\u4e39\u6c5f","postcode":"157000","citycode":"0453","areacode":"231000"},{"id":"244","province":"\u5e7f\u897f","city":"\u7389\u6797","postcode":"537000","citycode":"0775","areacode":"450900"},{"id":"245","province":"\u9752\u6d77","city":"\u7389\u6811","postcode":"815000","citycode":"0976","areacode":"632701"},{"id":"246","province":"\u4e91\u5357","city":"\u7389\u6eaa","postcode":"653100","citycode":"0877","areacode":"530400"},{"id":"247","province":"\u5e7f\u4e1c","city":"\u73e0\u6d77","postcode":"519000","citycode":"0756","areacode":"440400"},{"id":"248","province":"\u5409\u6797","city":"\u73f2\u6625","postcode":"133300","citycode":"0440","areacode":"222404"},{"id":"249","province":"\u7518\u8083","city":"\u7518\u5357","postcode":"162100","citycode":"0452","areacode":"623000"},{"id":"250","province":"\u56db\u5ddd","city":"\u7518\u5b5c","postcode":"626000","citycode":"0836","areacode":"513300"},{"id":"251","province":"\u5409\u6797","city":"\u767d\u57ce","postcode":"137000","citycode":"0436","areacode":"220800"},{"id":"252","province":"\u5409\u6797","city":"\u767d\u5c71","postcode":"134300","citycode":"0439","areacode":"220600"},{"id":"253","province":"\u7518\u8083","city":"\u767d\u94f6","postcode":"730900","citycode":"0943","areacode":"620400"},{"id":"254","province":"\u5e7f\u897f","city":"\u767e\u8272","postcode":"533000","citycode":"0776","areacode":"451000"},{"id":"255","province":"\u6e56\u5357","city":"\u76ca\u9633","postcode":"413000","citycode":"0737","areacode":"430900"},{"id":"256","province":"\u6c5f\u82cf","city":"\u76d0\u57ce","postcode":"224000","citycode":"0515","areacode":"320900"},{"id":"257","province":"\u8fbd\u5b81","city":"\u76d8\u9526","postcode":"124000","citycode":"0427","areacode":"211100"},{"id":"258","province":"\u56db\u5ddd","city":"\u7709\u5c71","postcode":"620000","citycode":"028","areacode":"511400"},{"id":"259","province":"\u5b81\u590f","city":"\u77f3\u5634\u5c71","postcode":"753000","citycode":"0952","areacode":"640200"},{"id":"260","province":"\u6cb3\u5317","city":"\u77f3\u5bb6\u5e84","postcode":"050000","citycode":"0311","areacode":"130100"},{"id":"261","province":"\u65b0\u7586","city":"\u77f3\u6cb3\u5b50","postcode":"832000","citycode":"0993","areacode":"659001"},{"id":"262","province":"\u6e56\u5317","city":"\u795e\u519c\u67b6","postcode":"442400","citycode":"0719","areacode":"429021"},{"id":"263","province":"\u798f\u5efa","city":"\u798f\u5dde","postcode":"350000","citycode":"0591","areacode":"350100"},{"id":"264","province":"\u6cb3\u5317","city":"\u79e6\u7687\u5c9b","postcode":"066000","citycode":"0335","areacode":"130300"},{"id":"265","province":"\u4e91\u5357","city":"\u7ea2\u6cb3","postcode":"661400","citycode":"0873","areacode":"532500"},{"id":"266","province":"\u6d59\u6c5f","city":"\u7ecd\u5174","postcode":"312000","citycode":"0575","areacode":"330600"},{"id":"267","province":"\u9ed1\u9f99\u6c5f","city":"\u7ee5\u5316","postcode":"152000","citycode":"0455","areacode":"231200"},{"id":"268","province":"\u56db\u5ddd","city":"\u7ef5\u9633","postcode":"621000","citycode":"0816","areacode":"510700"},{"id":"269","province":"\u5c71\u4e1c","city":"\u804a\u57ce","postcode":"252000","citycode":"0635","areacode":"371500"},{"id":"270","province":"\u5e7f\u4e1c","city":"\u8087\u5e86","postcode":"526000","citycode":"0758","areacode":"441200"},{"id":"271","province":"\u56db\u5ddd","city":"\u81ea\u8d21","postcode":"643000","citycode":"0813","areacode":"510300"},{"id":"272","province":"\u6d59\u6c5f","city":"\u821f\u5c71","postcode":"316000","citycode":"0580","areacode":"330900"},{"id":"273","province":"\u5b89\u5fbd","city":"\u829c\u6e56","postcode":"241000","citycode":"0553","areacode":"340200"},{"id":"274","province":"\u6c5f\u82cf","city":"\u82cf\u5dde","postcode":"215000","citycode":"0512","areacode":"320500"},{"id":"275","province":"\u5e7f\u4e1c","city":"\u8302\u540d","postcode":"525000","citycode":"0668","areacode":"440900"},{"id":"276","province":"\u6e56\u5317","city":"\u8346\u5dde","postcode":"434000","citycode":"0716","areacode":"421000"},{"id":"277","province":"\u6e56\u5317","city":"\u8346\u95e8","postcode":"448000","citycode":"0724","areacode":"420800"},{"id":"278","province":"\u798f\u5efa","city":"\u8386\u7530","postcode":"351100","citycode":"0594","areacode":"350300"},{"id":"279","province":"\u5c71\u4e1c","city":"\u83b1\u829c","postcode":"271100","citycode":"0634","areacode":"371200"},{"id":"280","province":"\u5c71\u4e1c","city":"\u83cf\u6cfd","postcode":"274000","citycode":"0530","areacode":"371700"},{"id":"281","province":"\u6c5f\u897f","city":"\u840d\u4e61","postcode":"337000","citycode":"0799","areacode":"360300"},{"id":"282","province":"\u8fbd\u5b81","city":"\u8425\u53e3","postcode":"115000","citycode":"0417","areacode":"210800"},{"id":"283","province":"\u8fbd\u5b81","city":"\u846b\u82a6\u5c9b","postcode":"125000","citycode":"0429","areacode":"211400"},{"id":"284","province":"\u5b89\u5fbd","city":"\u868c\u57e0","postcode":"233000","citycode":"0552","areacode":"340300"},{"id":"285","province":"\u6cb3\u5317","city":"\u8861\u6c34","postcode":"053000","citycode":"0318","areacode":"131100"},{"id":"286","province":"\u6e56\u5357","city":"\u8861\u9633","postcode":"421000","citycode":"0734","areacode":"430400"},{"id":"287","province":"\u6d59\u6c5f","city":"\u8862\u5dde","postcode":"324000","citycode":"0570","areacode":"330800"},{"id":"288","province":"\u6e56\u5317","city":"\u8944\u9633","postcode":"441000","citycode":"0710","areacode":"420600"},{"id":"289","province":"\u4e91\u5357","city":"\u897f\u53cc\u7248\u7eb3","postcode":"666100","citycode":"0691","areacode":"532800"},{"id":"290","province":"\u9752\u6d77","city":"\u897f\u5b81","postcode":"810000","citycode":"0971","areacode":"630100"},{"id":"291","province":"\u9655\u897f","city":"\u897f\u5b89","postcode":"710000","citycode":"029","areacode":"610100"},{"id":"292","province":"\u56db\u5ddd","city":"\u897f\u660c","postcode":"615000","citycode":"0834","areacode":"513401"},{"id":"293","province":"\u6cb3\u5357","city":"\u8bb8\u660c","postcode":"461000","citycode":"0374","areacode":"411000"},{"id":"294","province":"\u5e7f\u897f","city":"\u8d35\u6e2f","postcode":"537100","citycode":"0775","areacode":"450800"},{"id":"295","province":"\u8d35\u5dde","city":"\u8d35\u9633","postcode":"550000","citycode":"0851","areacode":"520100"},{"id":"296","province":"\u5e7f\u897f","city":"\u8d3a\u5dde","postcode":"542800","citycode":"0774","areacode":"451100"},{"id":"297","province":"\u56db\u5ddd","city":"\u8d44\u9633","postcode":"641300","citycode":"028","areacode":"512000"},{"id":"298","province":"\u6c5f\u897f","city":"\u8d63\u5dde","postcode":"341000","citycode":"0797","areacode":"360700"},{"id":"299","province":"\u5185\u8499\u53e4","city":"\u8d64\u5cf0","postcode":"024000","citycode":"0476","areacode":"150400"},{"id":"300","province":"\u5409\u6797","city":"\u8fbd\u6e90","postcode":"136200","citycode":"0437","areacode":"220400"},{"id":"301","province":"\u8fbd\u5b81","city":"\u8fbd\u9633","postcode":"111000","citycode":"0419","areacode":"211000"},{"id":"302","province":"\u56db\u5ddd","city":"\u8fbe\u5dde","postcode":"635000","citycode":"0818","areacode":"511700"},{"id":"303","province":"\u5c71\u897f","city":"\u8fd0\u57ce","postcode":"044000","citycode":"0359","areacode":"140800"},{"id":"304","province":"\u6c5f\u82cf","city":"\u8fde\u4e91\u6e2f","postcode":"222000","citycode":"0518","areacode":"320700"},{"id":"305","province":"\u4e91\u5357","city":"\u8fea\u5e86","postcode":"674400","citycode":"0887","areacode":"533400"},{"id":"306","province":"\u5409\u6797","city":"\u901a\u5316","postcode":"134000","citycode":"0435","areacode":"220500"},{"id":"307","province":"\u5185\u8499\u53e4","city":"\u901a\u8fbd","postcode":"028000","citycode":"0475","areacode":"150500"},{"id":"308","province":"\u56db\u5ddd","city":"\u9042\u5b81","postcode":"629000","citycode":"0825","areacode":"510900"},{"id":"309","province":"\u8d35\u5dde","city":"\u9075\u4e49","postcode":"563000","citycode":"0851","areacode":"520300"},{"id":"310","province":"\u6cb3\u5317","city":"\u90a2\u53f0","postcode":"054000","citycode":"0319","areacode":"130500"},{"id":"311","province":"\u897f\u85cf","city":"\u90a3\u66f2","postcode":"852000","citycode":"0896","areacode":"540600"},{"id":"312","province":"\u6cb3\u5317","city":"\u90af\u90f8","postcode":"056000","citycode":"0310","areacode":"130400"},{"id":"313","province":"\u6e56\u5357","city":"\u90b5\u9633","postcode":"422000","citycode":"0739","areacode":"430500"},{"id":"314","province":"\u6cb3\u5357","city":"\u90d1\u5dde","postcode":"450000","citycode":"0371","areacode":"410100"},{"id":"315","province":"\u6e56\u5357","city":"\u90f4\u5dde","postcode":"423000","citycode":"0735","areacode":"431000"},{"id":"316","province":"\u8d35\u5dde","city":"\u90fd\u5300","postcode":"558000","citycode":"0854","areacode":"522701"},{"id":"317","province":"\u5185\u8499\u53e4","city":"\u9102\u5c14\u591a\u65af","postcode":"017000","citycode":"0477","areacode":"150600"},{"id":"318","province":"\u6e56\u5317","city":"\u9102\u5dde","postcode":"436000","citycode":"0711","areacode":"420700"},{"id":"319","province":"\u7518\u8083","city":"\u9152\u6cc9","postcode":"735000","citycode":"0937","areacode":"620900"},{"id":"320","province":"\u91cd\u5e86","city":"\u91cd\u5e86","postcode":"400000","citycode":"023","areacode":"500000"},{"id":"321","province":"\u6d59\u6c5f","city":"\u91d1\u534e","postcode":"321000","citycode":"0579","areacode":"330700"},{"id":"322","province":"\u7518\u8083","city":"\u91d1\u660c","postcode":"737100","citycode":"0935","areacode":"620300"},{"id":"323","province":"\u5e7f\u897f","city":"\u94a6\u5dde","postcode":"535000","citycode":"0777","areacode":"450700"},{"id":"324","province":"\u8fbd\u5b81","city":"\u94c1\u5cad","postcode":"112000","citycode":"024","areacode":"211200"},{"id":"325","province":"\u8d35\u5dde","city":"\u94dc\u4ec1","postcode":"554300","citycode":"0856","areacode":"520600"},{"id":"326","province":"\u9655\u897f","city":"\u94dc\u5ddd","postcode":"727000","citycode":"0919","areacode":"610200"},{"id":"327","province":"\u5b89\u5fbd","city":"\u94dc\u9675","postcode":"244000","citycode":"0562","areacode":"340700"},{"id":"328","province":"\u5b81\u590f","city":"\u94f6\u5ddd","postcode":"750000","citycode":"0951","areacode":"640100"},{"id":"329","province":"\u5185\u8499\u53e4","city":"\u9521\u6797\u6d69\u7279","postcode":"026000","citycode":"0479","areacode":"152502"},{"id":"330","province":"\u5185\u8499\u53e4","city":"\u9521\u6797\u90ed\u52d2","postcode":"026000","citycode":"0479","areacode":"152500"},{"id":"331","province":"\u5185\u8499\u53e4","city":"\u9521\u6797\u90ed\u52d2\u76df","postcode":"026000","citycode":"0479","areacode":"152500"},{"id":"332","province":"\u8fbd\u5b81","city":"\u9526\u5dde","postcode":"121000","citycode":"0416","areacode":"210700"},{"id":"333","province":"\u6c5f\u82cf","city":"\u9547\u6c5f","postcode":"212000","citycode":"0511","areacode":"321100"},{"id":"334","province":"\u5409\u6797","city":"\u957f\u6625","postcode":"130000","citycode":"0431","areacode":"220100"},{"id":"335","province":"\u6e56\u5357","city":"\u957f\u6c99","postcode":"410000","citycode":"0731","areacode":"430100"},{"id":"336","province":"\u5c71\u897f","city":"\u957f\u6cbb","postcode":"046000","citycode":"0355","areacode":"140400"},{"id":"337","province":"\u8fbd\u5b81","city":"\u961c\u65b0","postcode":"123000","citycode":"0418","areacode":"210900"},{"id":"338","province":"\u5b89\u5fbd","city":"\u961c\u9633","postcode":"236000","citycode":"0558","areacode":"341200"},{"id":"339","province":"\u5e7f\u897f","city":"\u9632\u57ce\u6e2f","postcode":"538000","citycode":"0770","areacode":"450600"},{"id":"340","province":"\u5e7f\u4e1c","city":"\u9633\u6c5f","postcode":"529500","citycode":"0662","areacode":"441700"},{"id":"341","province":"\u5c71\u897f","city":"\u9633\u6cc9","postcode":"045000","citycode":"0353","areacode":"140300"},{"id":"342","province":"\u65b0\u7586","city":"\u963f\u514b\u82cf","postcode":"843000","citycode":"0997","areacode":"652901"},{"id":"343","province":"\u65b0\u7586","city":"\u963f\u52d2\u6cf0","postcode":"836500","citycode":"0906","areacode":"654301"},{"id":"344","province":"\u56db\u5ddd","city":"\u963f\u575d","postcode":"624000","citycode":"0837","areacode":"513200"},{"id":"345","province":"\u5185\u8499\u53e4","city":"\u963f\u62c9\u5584\u76df","postcode":"750306","citycode":"0483","areacode":"152900"},{"id":"346","province":"\u897f\u85cf","city":"\u963f\u91cc","postcode":"859000","citycode":"0807","areacode":"542500"},{"id":"347","province":"\u7518\u8083","city":"\u9647\u5357","postcode":"746000","citycode":"0939","areacode":"621200"},{"id":"348","province":"\u6e56\u5317","city":"\u968f\u5dde","postcode":"441300","citycode":"0722","areacode":"421300"},{"id":"349","province":"\u56db\u5ddd","city":"\u96c5\u5b89","postcode":"625000","citycode":"0835","areacode":"511800"},{"id":"350","province":"\u5185\u8499\u53e4","city":"\u96c6\u5b81","postcode":"012000","citycode":"0474","areacode":"150902"},{"id":"351","province":"\u5c71\u4e1c","city":"\u9752\u5c9b","postcode":"266000","citycode":"0532","areacode":"370200"},{"id":"352","province":"\u8fbd\u5b81","city":"\u978d\u5c71","postcode":"114000","citycode":"0412","areacode":"210300"},{"id":"353","province":"\u5e7f\u4e1c","city":"\u97f6\u5173","postcode":"512000","citycode":"0751","areacode":"440200"},{"id":"354","province":"\u5b89\u5fbd","city":"\u9a6c\u978d\u5c71","postcode":"243000","citycode":"0555","areacode":"340500"},{"id":"355","province":"\u6cb3\u5357","city":"\u9a7b\u9a6c\u5e97","postcode":"463000","citycode":"0396","areacode":"411700"},{"id":"356","province":"\u9ed1\u9f99\u6c5f","city":"\u9e21\u897f","postcode":"158100","citycode":"0467","areacode":"230300"},{"id":"357","province":"\u6cb3\u5357","city":"\u9e64\u58c1","postcode":"458000","citycode":"0392","areacode":"410600"},{"id":"358","province":"\u9ed1\u9f99\u6c5f","city":"\u9e64\u5c97","postcode":"154100","citycode":"0468","areacode":"230400"},{"id":"359","province":"\u6c5f\u897f","city":"\u9e70\u6f6d","postcode":"335000","citycode":"0701","areacode":"360600"},{"id":"360","province":"\u6e56\u5317","city":"\u9ec4\u5188","postcode":"438000","citycode":"0713","areacode":"421100"},{"id":"361","province":"\u9752\u6d77","city":"\u9ec4\u5357","postcode":"811300","citycode":"0973","areacode":"632300"},{"id":"362","province":"\u5b89\u5fbd","city":"\u9ec4\u5c71","postcode":"242700","citycode":"0559","areacode":"341000"},{"id":"363","province":"\u6e56\u5317","city":"\u9ec4\u77f3","postcode":"435000","citycode":"0714","areacode":"420200"},{"id":"364","province":"\u9ed1\u9f99\u6c5f","city":"\u9ed1\u6cb3","postcode":"164300","citycode":"0456","areacode":"231100"},{"id":"365","province":"\u8d35\u5dde","city":"\u9ed4\u4e1c\u5357","postcode":"556000","citycode":"0855","areacode":"522600"},{"id":"366","province":"\u8d35\u5dde","city":"\u9ed4\u5357","postcode":"558000","citycode":"0854","areacode":"522700"},{"id":"367","province":"\u91cd\u5e86","city":"\u9ed4\u6c5f","postcode":"409700","citycode":"023","areacode":"500114"},{"id":"368","province":"\u8d35\u5dde","city":"\u9ed4\u897f\u5357","postcode":"562400","citycode":"0859","areacode":"522300"},{"id":"369","province":"\u9ed1\u9f99\u6c5f","city":"\u9f50\u9f50\u54c8\u5c14","postcode":"161000","citycode":"0452","areacode":"230200"},{"id":"370","province":"\u798f\u5efa","city":"\u9f99\u5ca9","postcode":"364000","citycode":"0597","areacode":"350800"},{"id":"371","province":"\u6cb3\u5317","city":"\u96c4\u5b89","postcode":"222000","citycode":"0312","areacode":"130600"},{"id":"372","province":"\u65b0\u7586","city":"\u5df4\u5dde","postcode":"841000","citycode":"0996","areacode":"652800"},{"id":"373","province":"\u65b0\u7586","city":"\u4e94\u5bb6\u6e20","postcode":"831300","citycode":"0994","areacode":"659004"}]